{
  "norad_id": 56372,
  "name": "GS-1",
  "history": [
    {
      "epoch": "2026-03-28T13:28:50.312352Z",
      "apogee_km": 35800.00880139829,
      "perigee_km": 35760.177705454844,
      "latitude_deg": 1.3486708637516058,
      "longitude_deg": 85.49381406645561,
      "height_km": 35790.84335155692,
      "semi_major_axis_km": 42158.23025342657,
      "eccentricity": 0.0004724,
      "inclination_deg": 2.5179,
      "raan_deg": 80.7635,
      "arg_perigee_deg": 267.9888,
      "mean_anomaly_deg": 124.8921,
      "mean_motion_rev_day": 1.00294982
    },
    {
      "epoch": "2026-03-30T01:25:07.394304Z",
      "apogee_km": 35800.06338857157,
      "perigee_km": 35760.29966253827,
      "latitude_deg": -1.369997817970361,
      "longitude_deg": 85.52930760709879,
      "height_km": 35768.3443683648,
      "semi_major_axis_km": 42158.318525554925,
      "eccentricity": 0.0004716,
      "inclination_deg": 2.5218,
      "raan_deg": 80.7433,
      "arg_perigee_deg": 268.2037,
      "mean_anomaly_deg": 305.3692,
      "mean_motion_rev_day": 1.00294667
    },
    {
      "epoch": "2026-03-30T01:25:07.395168Z",
      "apogee_km": 35800.0625454052,
      "perigee_km": 35760.30050570464,
      "latitude_deg": -1.3699978872350007,
      "longitude_deg": 85.52930587871539,
      "height_km": 35768.34485665699,
      "semi_major_axis_km": 42158.318525554925,
      "eccentricity": 0.00047158,
      "inclination_deg": 2.5218,
      "raan_deg": 80.7433,
      "arg_perigee_deg": 268.2037,
      "mean_anomaly_deg": 305.3692,
      "mean_motion_rev_day": 1.00294667
    },
    {
      "epoch": "2026-03-31T21:54:55.030752Z",
      "apogee_km": 35800.20252131803,
      "perigee_km": 35760.379670138806,
      "latitude_deg": 0.7583644857975571,
      "longitude_deg": 85.70989098601719,
      "height_km": 35784.85858295243,
      "semi_major_axis_km": 42158.42809572842,
      "eccentricity": 0.0004723,
      "inclination_deg": 2.5267,
      "raan_deg": 80.7184,
      "arg_perigee_deg": 267.8131,
      "mean_anomaly_deg": 255.2127,
      "mean_motion_rev_day": 1.00294276
    }
  ]
}